{"type": "FeatureCollection", "features": [{"type": "Feature", "properties": {"norad_id": 22490, "name": "SCD 1", "group": "resource", "lat": 8.639557389713344, "lon": 0.13625278019607853, "alt_km": 719.5635259114197, "timestamp": "2025-12-25T14:48:24.458200+00:00", "meta": {"OBJECT_NAME": "SCD 1", "OBJECT_ID": "1993-009B", "EPOCH": "2025-12-24T21:37:14.666016", "MEAN_MOTION": 14.46006798, "ECCENTRICITY": 0.004218, "INCLINATION": 24.9676, "RA_OF_ASC_NODE": 203.6132, "ARG_OF_PERICENTER": 93.4836, "MEAN_ANOMALY": 289.9521, "EPHEMERIS_TYPE": 0, "CLASSIFICATION_TYPE": "U", "NORAD_CAT_ID": 22490, "ELEMENT_SET_NO": 999, "REV_AT_EPOCH": 73586, "BSTAR": 8.1285e-05, "MEAN_MOTION_DOT": 4.83e-06, "MEAN_MOTION_DDOT": 0}, "tle": {"line1": "1 22490U 93009B   25358.90086419  .00000483  00000+0  81285-4 0  9990", "line2": "2 22490  24.9676 203.6132 0042180  93.4836 289.9521 14.46006798735868"}}, "geometry": {"type": "Point", "coordinates": [0.13625278019607853, 8.639557389713344]}}, {"type": "Feature", "properties": {"norad_id": 25397, "name": "TECHSAT 1B (GO-32)", "group": "resource", "lat": -73.98904338094347, "lon": 16.623109771262882, "alt_km": 818.3028466258211, "timestamp": "2025-12-25T14:48:24.458238+00:00", "meta": {"OBJECT_NAME": "TECHSAT 1B (GO-32)", "OBJECT_ID": "1998-043D", "EPOCH": "2025-12-24T20:37:17.748480", "MEAN_MOTION": 14.24380271, "ECCENTRICITY": 0.00016683, "INCLINATION": 98.9932, "RA_OF_ASC_NODE": 342.3516, "ARG_OF_PERICENTER": 37.3772, "MEAN_ANOMALY": 322.7522, "EPHEMERIS_TYPE": 0, "CLASSIFICATION_TYPE": "U", "NORAD_CAT_ID": 25397, "ELEMENT_SET_NO": 999, "REV_AT_EPOCH": 42651, "BSTAR": 5.2942367e-05, "MEAN_MOTION_DOT": 7.6e-07, "MEAN_MOTION_DDOT": 0}, "tle": {"line1": "1 25397U 98043D   25358.85923320  .00000076  00000+0  52942-4 0  9993", "line2": "2 25397  98.9932 342.3516 0001668  37.3772 322.7522 14.24380271426515"}}, "geometry": {"type": "Point", "coordinates": [16.623109771262882, -73.98904338094347]}}, {"type": "Feature", "properties": {"norad_id": 25504, "name": "SCD 2", "group": "resource", "lat": 6.66329045476033, "lon": -132.02443386164398, "alt_km": 734.5277824404939, "timestamp": "2025-12-25T14:48:24.458251+00:00", "meta": {"OBJECT_NAME": "SCD 2", "OBJECT_ID": "1998-060A", "EPOCH": "2025-12-24T13:48:55.433376", "MEAN_MOTION": 14.45429519, "ECCENTRICITY": 0.00170635, "INCLINATION": 24.9954, "RA_OF_ASC_NODE": 68.9145, "ARG_OF_PERICENTER": 78.1649, "MEAN_ANOMALY": 56.1547, "EPHEMERIS_TYPE": 0, "CLASSIFICATION_TYPE": "U", "NORAD_CAT_ID": 25504, "ELEMENT_SET_NO": 999, "REV_AT_EPOCH": 43503, "BSTAR": 7.2332367e-05, "MEAN_MOTION_DOT": 4.41e-06, "MEAN_MOTION_DDOT": 0}, "tle": {"line1": "1 25504U 98060A   25358.57564159  .00000441  00000+0  72332-4 0  9993", "line2": "2 25504  24.9954  68.9145 0017063  78.1649  56.1547 14.45429519435033"}}, "geometry": {"type": "Point", "coordinates": [-132.02443386164398, 6.66329045476033]}}, {"type": "Feature", "properties": {"norad_id": 25757, "name": "DLR-TUBSAT", "group": "resource", "lat": -3.449613555963678, "lon": -14.945805071083745, "alt_km": 730.6024516566113, "timestamp": "2025-12-25T14:48:24.458261+00:00", "meta": {"OBJECT_NAME": "DLR-TUBSAT", "OBJECT_ID": "1999-029B", "EPOCH": "2025-12-17T13:22:10.787520", "MEAN_MOTION": 14.52359578, "ECCENTRICITY": 0.00141996, "INCLINATION": 98.6566, "RA_OF_ASC_NODE": 336.2196, "ARG_OF_PERICENTER": 177.8976, "MEAN_ANOMALY": 182.2281, "EPHEMERIS_TYPE": 0, "CLASSIFICATION_TYPE": "U", "NORAD_CAT_ID": 25757, "ELEMENT_SET_NO": 999, "REV_AT_EPOCH": 40688, "BSTAR": 3.7650132e-05, "MEAN_MOTION_DOT": 1.05e-06, "MEAN_MOTION_DDOT": 0}, "tle": {"line1": "1 25757U 99029B   25351.55706930  .00000105  00000+0  37650-4 0  9996", "line2": "2 25757  98.6566 336.2196 0014199 177.8976 182.2281 14.52359578406886"}}, "geometry": {"type": "Point", "coordinates": [-14.945805071083745, -3.449613555963678]}}, {"type": "Feature", "properties": {"norad_id": 25994, "name": "TERRA", "group": "resource", "lat": 80.62506570538571, "lon": -71.07886986347584, "alt_km": 680.6371247291345, "timestamp": "2025-12-25T14:48:24.458272+00:00", "meta": {"OBJECT_NAME": "TERRA", "OBJECT_ID": "1999-068A", "EPOCH": "2025-12-25T06:27:02.961792", "MEAN_MOTION": 14.60915446, "ECCENTRICITY": 0.00034208, "INCLINATION": 97.9731, "RA_OF_ASC_NODE": 50.4924, "ARG_OF_PERICENTER": 69.5688, "MEAN_ANOMALY": 355.332, "EPHEMERIS_TYPE": 0, "CLASSIFICATION_TYPE": "U", "NORAD_CAT_ID": 25994, "ELEMENT_SET_NO": 999, "REV_AT_EPOCH": 38421, "BSTAR": 0.00010627142, "MEAN_MOTION_DOT": 4.76e-06, "MEAN_MOTION_DDOT": 0}, "tle": {"line1": "1 25994U 99068A   25359.26878428  .00000476  00000+0  10627-3 0  9995", "line2": "2 25994  97.9731  50.4924 0003420  69.5688 355.3320 14.60915446384211"}}, "geometry": {"type": "Point", "coordinates": [-71.07886986347584, 80.62506570538571]}}, {"type": "Feature", "properties": {"norad_id": 27004, "name": "MAROC-TUBSAT", "group": "resource", "lat": -28.115713184686527, "lon": -17.006525681414818, "alt_km": 990.7706665666155, "timestamp": "2025-12-25T14:48:24.458282+00:00", "meta": {"OBJECT_NAME": "MAROC-TUBSAT", "OBJECT_ID": "2001-056D", "EPOCH": "2025-12-25T07:22:34.254624", "MEAN_MOTION": 13.70253491, "ECCENTRICITY": 0.0019281, "INCLINATION": 99.7917, "RA_OF_ASC_NODE": 167.9726, "ARG_OF_PERICENTER": 226.8233, "MEAN_ANOMALY": 255.2272, "EPHEMERIS_TYPE": 0, "CLASSIFICATION_TYPE": "U", "NORAD_CAT_ID": 27004, "ELEMENT_SET_NO": 999, "REV_AT_EPOCH": 20237, "BSTAR": 2.7504696e-05, "MEAN_MOTION_DOT": -2.2e-07, "MEAN_MOTION_DDOT": 0}, "tle": {"line1": "1 27004U 01056D   25359.30734091 -.00000022  00000+0  27505-4 0  9993", "line2": "2 27004  99.7917 167.9726 0019281 226.8233 255.2272 13.70253491202376"}}, "geometry": {"type": "Point", "coordinates": [-17.006525681414818, -28.115713184686527]}}, {"type": "Feature", "properties": {"norad_id": 27424, "name": "AQUA", "group": "resource", "lat": 11.98810304609659, "lon": -41.09257539565249, "alt_km": 688.7337401854729, "timestamp": "2025-12-25T14:48:24.458293+00:00", "meta": {"OBJECT_NAME": "AQUA", "OBJECT_ID": "2002-022A", "EPOCH": "2025-12-24T19:18:33.414624", "MEAN_MOTION": 14.61757572, "ECCENTRICITY": 0.00018094, "INCLINATION": 98.4055, "RA_OF_ASC_NODE": 319.881, "ARG_OF_PERICENTER": 102.1365, "MEAN_ANOMALY": 317.5475, "EPHEMERIS_TYPE": 0, "CLASSIFICATION_TYPE": "U", "NORAD_CAT_ID": 27424, "ELEMENT_SET_NO": 999, "REV_AT_EPOCH": 25779, "BSTAR": 0.00019560508, "MEAN_MOTION_DOT": 9.26e-06, "MEAN_MOTION_DDOT": 0}, "tle": {"line1": "1 27424U 02022A   25358.80455341  .00000926  00000+0  19561-3 0  9999", "line2": "2 27424  98.4055 319.8810 0001809 102.1365 317.5475 14.61757572257795"}}, "geometry": {"type": "Point", "coordinates": [-41.09257539565249, 11.98810304609659]}}, {"type": "Feature", "properties": {"norad_id": 28051, "name": "IRS-P6 (RESOURCESAT-1)", "group": "resource", "lat": 54.19684261134504, "lon": -129.01958840420207, "alt_km": 722.0099681595111, "timestamp": "2025-12-25T14:48:24.458303+00:00", "meta": {"OBJECT_NAME": "IRS-P6 (RESOURCESAT-1)", "OBJECT_ID": "2003-046A", "EPOCH": "2025-12-25T06:27:37.373184", "MEAN_MOTION": 14.36079884, "ECCENTRICITY": 0.00649023, "INCLINATION": 98.2158, "RA_OF_ASC_NODE": 39.0944, "ARG_OF_PERICENTER": 143.2803, "MEAN_ANOMALY": 344.9733, "EPHEMERIS_TYPE": 0, "CLASSIFICATION_TYPE": "U", "NORAD_CAT_ID": 28051, "ELEMENT_SET_NO": 999, "REV_AT_EPOCH": 15556, "BSTAR": 4.887114e-05, "MEAN_MOTION_DOT": 1.05e-06, "MEAN_MOTION_DDOT": 0}, "tle": {"line1": "1 28051U 03046A   25359.26918256  .00000105  00000+0  48871-4 0  9999", "line2": "2 28051  98.2158  39.0944 0064902 143.2803 344.9733 14.36079884155567"}}, "geometry": {"type": "Point", "coordinates": [-129.01958840420207, 54.19684261134504]}}, {"type": "Feature", "properties": {"norad_id": 28220, "name": "SHIYAN-1 (SY-1)", "group": "resource", "lat": -51.48864089991879, "lon": 71.95561601478967, "alt_km": 484.5639546884913, "timestamp": "2025-12-25T14:48:24.458313+00:00", "meta": {"OBJECT_NAME": "SHIYAN-1 (SY-1)", "OBJECT_ID": "2004-012A", "EPOCH": "2025-12-25T02:27:54.101664", "MEAN_MOTION": 15.28459772, "ECCENTRICITY": 0.00051041, "INCLINATION": 97.8918, "RA_OF_ASC_NODE": 61.3721, "ARG_OF_PERICENTER": 272.4584, "MEAN_ANOMALY": 87.607, "EPHEMERIS_TYPE": 0, "CLASSIFICATION_TYPE": "U", "NORAD_CAT_ID": 28220, "ELEMENT_SET_NO": 999, "REV_AT_EPOCH": 18445, "BSTAR": 0.00051188572, "MEAN_MOTION_DOT": 0.00014115, "MEAN_MOTION_DDOT": 0}, "tle": {"line1": "1 28220U 04012A   25359.10270951  .00014115  00000+0  51189-3 0  9998", "line2": "2 28220  97.8918  61.3721 0005104 272.4584  87.6070 15.28459772184450"}}, "geometry": {"type": "Point", "coordinates": [71.95561601478967, -51.48864089991879]}}, {"type": "Feature", "properties": {"norad_id": 28376, "name": "AURA", "group": "resource", "lat": 73.66535481807905, "lon": 159.86054564724495, "alt_km": 681.9838299353078, "timestamp": "2025-12-25T14:48:24.458323+00:00", "meta": {"OBJECT_NAME": "AURA", "OBJECT_ID": "2004-026A", "EPOCH": "2025-12-25T02:49:34.505472", "MEAN_MOTION": 14.60974091, "ECCENTRICITY": 0.00014365, "INCLINATION": 98.3203, "RA_OF_ASC_NODE": 309.4031, "ARG_OF_PERICENTER": 90.848, "MEAN_ANOMALY": 269.2885, "EPHEMERIS_TYPE": 0, "CLASSIFICATION_TYPE": "U", "NORAD_CAT_ID": 28376, "ELEMENT_SET_NO": 999, "REV_AT_EPOCH": 14079, "BSTAR": 0.00023070946, "MEAN_MOTION_DOT": 1.083e-05, "MEAN_MOTION_DDOT": 0}, "tle": {"line1": "1 28376U 04026A   25359.11776048  .00001083  00000+0  23071-3 0  9993", "line2": "2 28376  98.3203 309.4031 0001436  90.8480 269.2885 14.60974091140798"}}, "geometry": {"type": "Point", "coordinates": [159.86054564724495, 73.66535481807905]}}]}